LYNK TOWER 6            
1 59123U 24043AB  26068.89488777  .00011440  00000+0  40142-3 0  9996
2 59123  97.5426 204.1954 0009749 232.0253 128.0107 15.29548678111845
STARLINK-31680          
1 59380U 24062G   26068.83412269 -.00001290  00000+0 -31453-4 0  9999
2 59380  53.1599 257.8269 0001252  93.0039 267.1105 15.30176429109619
