[{"OBJECT_NAME":"LYNK TOWER 6","OBJECT_ID":"2024-043AB","EPOCH":"2026-03-09T21:28:38.303328","MEAN_MOTION":15.29548678,"ECCENTRICITY":0.00097492,"INCLINATION":97.5426,"RA_OF_ASC_NODE":204.1954,"ARG_OF_PERICENTER":232.0253,"MEAN_ANOMALY":128.0107,"EPHEMERIS_TYPE":0,"CLASSIFICATION_TYPE":"U","NORAD_CAT_ID":59123,"ELEMENT_SET_NO":999,"REV_AT_EPOCH":11184,"BSTAR":0.00040142146,"MEAN_MOTION_DOT":0.0001144,"MEAN_MOTION_DDOT":0},{"OBJECT_NAME":"STARLINK-31680","OBJECT_ID":"2024-062G","EPOCH":"2026-03-09T20:01:08.200416","MEAN_MOTION":15.30176429,"ECCENTRICITY":0.00012522,"INCLINATION":53.1599,"RA_OF_ASC_NODE":257.8269,"ARG_OF_PERICENTER":93.0039,"MEAN_ANOMALY":267.1105,"EPHEMERIS_TYPE":0,"CLASSIFICATION_TYPE":"U","NORAD_CAT_ID":59380,"ELEMENT_SET_NO":999,"REV_AT_EPOCH":10961,"BSTAR":-3.1453464e-5,"MEAN_MOTION_DOT":-1.29e-5,"MEAN_MOTION_DDOT":0}]
